{
  "type": "FeatureCollection",
  "features": [
    {
      "type": "Feature",
      "properties": {
        "norad_id": 39766,
        "name": "ALOS-2",
        "group": "resource",
        "lat": 0.8173953488878164,
        "lon": -100.79745221490809,
        "alt_km": 633.7978498224711,
        "timestamp": "2025-12-10T04:57:29.262641+00:00",
        "meta_object_name": "ALOS-2",
        "meta_object_id": "2014-029A",
        "meta_epoch": "2025-12-09T20:02:07.876896",
        "meta_mean_motion": 14.79463674,
        "meta_eccentricity": 0.0001506,
        "meta_inclination": 97.9226,
        "meta_ra_of_asc_node": 78.7223,
        "meta_arg_of_pericenter": 96.9697,
        "meta_mean_anomaly": 263.1686,
        "meta_ephemeris_type": 0,
        "meta_classification_type": "U",
        "meta_norad_cat_id": 39766,
        "meta_element_set_no": 999,
        "meta_rev_at_epoch": 62358,
        "meta_bstar": 0.00050358,
        "meta_mean_motion_dot": 3.711e-05,
        "meta_mean_motion_ddot": 0,
        "tle_line1": "1 39766U 14029A   25343.83481339  .00003711  00000+0  50358-3 0  9998",
        "tle_line2": "2 39766  97.9226  78.7223 0001506  96.9697 263.1686 14.79463674623582"
      },
      "geometry": {
        "type": "Point",
        "coordinates": [
          -100.79745221490809,
          0.8173953488878164
        ]
      }
    },
    {
      "type": "Feature",
      "properties": {
        "norad_id": 40010,
        "name": "KAZEOSAT 2",
        "group": "resource",
        "lat": 36.88580843582738,
        "lon": -177.06083262661883,
        "alt_km": 615.7492577698158,
        "timestamp": "2025-12-10T04:57:29.262652+00:00",
        "meta_object_name": "KAZEOSAT 2",
        "meta_object_id": "2014-033A",
        "meta_epoch": "2025-12-09T20:42:20.639232",
        "meta_mean_motion": 14.85160969,
        "meta_eccentricity": 0.0007519,
        "meta_inclination": 97.5501,
        "meta_ra_of_asc_node": 188.3254,
        "meta_arg_of_pericenter": 217.1164,
        "meta_mean_anomaly": 142.9533,
        "meta_ephemeris_type": 0,
        "meta_classification_type": "U",
        "meta_norad_cat_id": 40010,
        "meta_element_set_no": 999,
        "meta_rev_at_epoch": 62085,
        "meta_bstar": 0.00018582,
        "meta_mean_motion_dot": 1.541e-05,
        "meta_mean_motion_ddot": 0,
        "tle_line1": "1 40010U 14033A   25343.86273888  .00001541  00000+0  18582-3 0  9990",
        "tle_line2": "2 40010  97.5501 188.3254 0007519 217.1164 142.9533 14.85160969620856"
      },
      "geometry": {
        "type": "Point",
        "coordinates": [
          -177.06083262661883,
          36.88580843582738
        ]
      }
    },
    {
      "type": "Feature",
      "properties": {
        "norad_id": 40011,
        "name": "HODOYOSHI-4",
        "group": "resource",
        "lat": 74.24866881477234,
        "lon": 21.230369477372573,
        "alt_km": 603.0623487111134,
        "timestamp": "2025-12-10T04:57:29.262662+00:00",
        "meta_object_name": "HODOYOSHI-4",
        "meta_object_id": "2014-033B",
        "meta_epoch": "2025-12-09T20:25:07.781664",
        "meta_mean_motion": 14.8746304,
        "meta_eccentricity": 0.0022987,
        "meta_inclination": 97.5416,
        "meta_ra_of_asc_node": 172.8774,
        "meta_arg_of_pericenter": 210.5854,
        "meta_mean_anomaly": 149.4024,
        "meta_ephemeris_type": 0,
        "meta_classification_type": "U",
        "meta_norad_cat_id": 40011,
        "meta_element_set_no": 999,
        "meta_rev_at_epoch": 62065,
        "meta_bstar": 0.00018287,
        "meta_mean_motion_dot": 1.612e-05,
        "meta_mean_motion_ddot": 0,
        "tle_line1": "1 40011U 14033B   25343.85078451  .00001612  00000+0  18287-3 0  9990",
        "tle_line2": "2 40011  97.5416 172.8774 0022987 210.5854 149.4024 14.87463040620659"
      },
      "geometry": {
        "type": "Point",
        "coordinates": [
          21.230369477372573,
          74.24866881477234
        ]
      }
    },
    {
      "type": "Feature",
      "properties": {
        "norad_id": 40013,
        "name": "DEIMOS-2",
        "group": "resource",
        "lat": -31.13761804476917,
        "lon": 35.46005504562866,
        "alt_km": 595.1626319447687,
        "timestamp": "2025-12-10T04:57:29.262672+00:00",
        "meta_object_name": "DEIMOS-2",
        "meta_object_id": "2014-033D",
        "meta_epoch": "2025-12-09T21:34:49.070784",
        "meta_mean_motion": 14.92955541,
        "meta_eccentricity": 0.0001047,
        "meta_inclination": 97.6065,
        "meta_ra_of_asc_node": 219.7936,
        "meta_arg_of_pericenter": 91.8415,
        "meta_mean_anomaly": 268.2924,
        "meta_ephemeris_type": 0,
        "meta_classification_type": "U",
        "meta_norad_cat_id": 40013,
        "meta_element_set_no": 999,
        "meta_rev_at_epoch": 60947,
        "meta_bstar": 0.00036902,
        "meta_mean_motion_dot": 3.777e-05,
        "meta_mean_motion_ddot": 0,
        "tle_line1": "1 40013U 14033D   25343.89917906  .00003777  00000+0  36902-3 0  9991",
        "tle_line2": "2 40013  97.6065 219.7936 0001047  91.8415 268.2924 14.92955541609474"
      },
      "geometry": {
        "type": "Point",
        "coordinates": [
          35.46005504562866,
          -31.13761804476917
        ]
      }
    },
    {
      "type": "Feature",
      "properties": {
        "norad_id": 40015,
        "name": "HODOYOSHI-3",
        "group": "resource",
        "lat": 53.20485816104768,
        "lon": 139.84117971340672,
        "alt_km": 629.7675495940894,
        "timestamp": "2025-12-10T04:57:29.262683+00:00",
        "meta_object_name": "HODOYOSHI-3",
        "meta_object_id": "2014-033F",
        "meta_epoch": "2025-12-09T17:23:36.960576",
        "meta_mean_motion": 14.84791818,
        "meta_eccentricity": 0.0031812,
        "meta_inclination": 97.62,
        "meta_ra_of_asc_node": 149.6911,
        "meta_arg_of_pericenter": 258.2861,
        "meta_mean_anomaly": 101.4784,
        "meta_ephemeris_type": 0,
        "meta_classification_type": "U",
        "meta_norad_cat_id": 40015,
        "meta_element_set_no": 999,
        "meta_rev_at_epoch": 61950,
        "meta_bstar": 0.00035855,
        "meta_mean_motion_dot": 3.017e-05,
        "meta_mean_motion_ddot": 0,
        "tle_line1": "1 40015U 14033F   25343.72473334  .00003017  00000+0  35855-3 0  9990",
        "tle_line2": "2 40015  97.6200 149.6911 0031812 258.2861 101.4784 14.84791818619501"
      },
      "geometry": {
        "type": "Point",
        "coordinates": [
          139.84117971340672,
          53.20485816104768
        ]
      }
    },
    {
      "type": "Feature",
      "properties": {
        "norad_id": 40053,
        "name": "SPOT 7",
        "group": "resource",
        "lat": -4.463563878814297,
        "lon": 46.976361995253,
        "alt_km": 694.4205656402874,
        "timestamp": "2025-12-10T04:57:29.262694+00:00",
        "meta_object_name": "SPOT 7",
        "meta_object_id": "2014-034A",
        "meta_epoch": "2025-12-09T20:45:31.449312",
        "meta_mean_motion": 14.60727246,
        "meta_eccentricity": 0.0001549,
        "meta_inclination": 98.0905,
        "meta_ra_of_asc_node": 46.0064,
        "meta_arg_of_pericenter": 88.9074,
        "meta_mean_anomaly": 271.2304,
        "meta_ephemeris_type": 0,
        "meta_classification_type": "U",
        "meta_norad_cat_id": 40053,
        "meta_element_set_no": 999,
        "meta_rev_at_epoch": 60949,
        "meta_bstar": 0.00013626,
        "meta_mean_motion_dot": 6.19e-06,
        "meta_mean_motion_ddot": 0,
        "tle_line1": "1 40053U 14034A   25343.86494733  .00000619  00000+0  13626-3 0  9991",
        "tle_line2": "2 40053  98.0905  46.0064 0001549  88.9074 271.2304 14.60727246609496"
      },
      "geometry": {
        "type": "Point",
        "coordinates": [
          46.976361995253,
          -4.463563878814297
        ]
      }
    },
    {
      "type": "Feature",
      "properties": {
        "norad_id": 40072,
        "name": "SKYSAT-B",
        "group": "resource",
        "lat": 47.60469231484546,
        "lon": -81.49125388751868,
        "alt_km": 603.4766020031711,
        "timestamp": "2025-12-10T04:57:29.262704+00:00",
        "meta_object_name": "SKYSAT-B",
        "meta_object_id": "2014-037D",
        "meta_epoch": "2025-12-09T19:03:13.836960",
        "meta_mean_motion": 14.87310727,
        "meta_eccentricity": 0.0005909,
        "meta_inclination": 98.3608,
        "meta_ra_of_asc_node": 287.3443,
        "meta_arg_of_pericenter": 159.0693,
        "meta_mean_anomaly": 201.0764,
        "meta_ephemeris_type": 0,
        "meta_classification_type": "U",
        "meta_norad_cat_id": 40072,
        "meta_element_set_no": 999,
        "meta_rev_at_epoch": 61780,
        "meta_bstar": 0.00038192,
        "meta_mean_motion_dot": 3.387e-05,
        "meta_mean_motion_ddot": 0,
        "tle_line1": "1 40072U 14037D   25343.79391015  .00003387  00000+0  38192-3 0  9996",
        "tle_line2": "2 40072  98.3608 287.3443 0005909 159.0693 201.0764 14.87310727617808"
      },
      "geometry": {
        "type": "Point",
        "coordinates": [
          -81.49125388751868,
          47.60469231484546
        ]
      }
    }
  ]
}